{
  "norad_id": 61065,
  "name": "STARLINK-32321",
  "history": [
    {
      "epoch": "2026-03-28T11:39:26.456832",
      "apogee_km": 476.3328449774881,
      "perigee_km": 474.231997788057,
      "latitude_deg": 49.170182044880455,
      "longitude_deg": -26.870603520190343,
      "semi_major_axis_km": 6853.419421382772,
      "eccentricity": 0.00015327,
      "inclination_deg": 53.1642,
      "raan_deg": 3.9323,
      "arg_perigee_deg": 85.0703,
      "mean_anomaly_deg": 275.0473,
      "mean_motion_rev_day": 15.30177443
    },
    {
      "epoch": "2026-03-29T03:19:56.314272",
      "apogee_km": 476.1704309804845,
      "perigee_km": 474.20900887324115,
      "latitude_deg": -8.234036341865757,
      "longitude_deg": 35.82923807995394,
      "semi_major_axis_km": 6853.326719926862,
      "eccentricity": 0.0001431,
      "inclination_deg": 53.1632,
      "raan_deg": 0.8978,
      "arg_perigee_deg": 94.6055,
      "mean_anomaly_deg": 265.5109,
      "mean_motion_rev_day": 15.3020849
    }
  ]
}